start=new Date('2023-01-19T00:00:00.000Z').valueOf();
sats=[{"MEAN_MOTION_DDOT":"0.0000000000000","ARG_OF_PERICENTER":"86.2243","FILE":"3754254","RA_OF_ASC_NODE":"261.8626","EPHEMERIS_TYPE":"0","MEAN_MOTION_DOT":"0.00028033","TLE_LINE1":"1 53668U 22105W   23018.65927941  .00028033  00000-0  21763-2 0  9992","MEAN_MOTION":"15.01298193","REF_FRAME":"TEME","DECAY_DATE":null,"OBJECT_ID":"2022-105W","PERIOD":"95.917","MEAN_ANOMALY":"273.9189","SITE":"AFWTR","INCLINATION":"97.6563","TIME_SYSTEM":"UTC","ELEMENT_SET_NO":"999","APOAPSIS":"564.157","PERIAPSIS":"561.632","OBJECT_TYPE":"PAYLOAD","CENTER_NAME":"EARTH","BSTAR":"0.00217630000000","LAUNCH_DATE":"2022-08-31","SEMIMAJOR_AXIS":"6941.029","EPOCH":"2023-01-18T15:49:21.741024","NORAD_CAT_ID":"53668","OBJECT_NAME":"STARLINK-4458","ECCENTRICITY":"0.00018190","MEAN_ELEMENT_THEORY":"SGP4","TLE_LINE2":"2 53668  97.6563 261.8626 0001819  86.2243 273.9189 15.01298193 21293","GP_ID":"223457070","CLASSIFICATION_TYPE":"U","RCS_SIZE":"LARGE","REV_AT_EPOCH":"2129","COUNTRY_CODE":"US"},{"MEAN_MOTION_DOT":"0.00014949","RA_OF_ASC_NODE":"262.1289","EPHEMERIS_TYPE":"0","ARG_OF_PERICENTER":"103.7427","FILE":"3754254","MEAN_MOTION_DDOT":"0.0000000000000","MEAN_ANOMALY":"256.4077","SITE":"AFWTR","PERIOD":"95.918","OBJECT_ID":"2022-105X","TLE_LINE1":"1 53669U 22105X   23018.92773786  .00014949  00000-0  11651-2 0  9995","MEAN_MOTION":"15.01287552","DECAY_DATE":null,"REF_FRAME":"TEME","PERIAPSIS":"561.181","OBJECT_TYPE":"PAYLOAD","CENTER_NAME":"EARTH","BSTAR":"0.00116510000000","APOAPSIS":"564.673","INCLINATION":"97.6583","TIME_SYSTEM":"UTC","ELEMENT_SET_NO":"999","RCS_SIZE":"LARGE","GP_ID":"223457318","CLASSIFICATION_TYPE":"U","REV_AT_EPOCH":"2133","COUNTRY_CODE":"US","NORAD_CAT_ID":"53669","OBJECT_NAME":"STARLINK-4464","ECCENTRICITY":"0.00025150","TLE_LINE2":"2 53669  97.6583 262.1289 0002515 103.7427 256.4077 15.01287552 21332","MEAN_ELEMENT_THEORY":"SGP4","SEMIMAJOR_AXIS":"6941.062","EPOCH":"2023-01-18T22:15:56.551104","LAUNCH_DATE":"2022-08-31"},{"INCLINATION":"97.6565","TIME_SYSTEM":"UTC","ELEMENT_SET_NO":"999","CENTER_NAME":"EARTH","OBJECT_TYPE":"PAYLOAD","PERIAPSIS":"561.846","BSTAR":"0.00159990000000","APOAPSIS":"563.959","SEMIMAJOR_AXIS":"6941.037","EPOCH":"2023-01-18T22:07:56.357184","LAUNCH_DATE":"2022-08-31","CLASSIFICATION_TYPE":"U","GP_ID":"223458554","RCS_SIZE":"LARGE","REV_AT_EPOCH":"2133","COUNTRY_CODE":"US","OBJECT_NAME":"STARLINK-4459","NORAD_CAT_ID":"53670","ECCENTRICITY":"0.00015220","MEAN_ELEMENT_THEORY":"SGP4","TLE_LINE2":"2 53670  97.6565 262.1222 0001522 105.0675 255.0718 15.01295482 21336","ARG_OF_PERICENTER":"105.0675","FILE":"3754254","MEAN_MOTION_DDOT":"0.0000000000000","MEAN_MOTION_DOT":"0.00020570","RA_OF_ASC_NODE":"262.1222","EPHEMERIS_TYPE":"0","OBJECT_ID":"2022-105Y","TLE_LINE1":"1 53670U 22105Y   23018.92218006  .00020570  00000-0  15999-2 0  9992","MEAN_MOTION":"15.01295482","REF_FRAME":"TEME","DECAY_DATE":null,"MEAN_ANOMALY":"255.0718","SITE":"AFWTR","PERIOD":"95.917"},{"MEAN_MOTION_DOT":"0.00020852","EPHEMERIS_TYPE":"0","RA_OF_ASC_NODE":"262.1224","ARG_OF_PERICENTER":"103.0701","FILE":"3754254","MEAN_MOTION_DDOT":"0.0000000000000","SITE":"AFWTR","MEAN_ANOMALY":"257.0709","PERIOD":"95.917","OBJECT_ID":"2022-105Z","MEAN_MOTION":"15.01295486","REF_FRAME":"TEME","DECAY_DATE":null,"TLE_LINE1":"1 53671U 22105Z   23018.92403334  .00020852  00000-0  16217-2 0  9990","OBJECT_TYPE":"PAYLOAD","CENTER_NAME":"EARTH","PERIAPSIS":"561.750","BSTAR":"0.00162170000000","APOAPSIS":"564.055","TIME_SYSTEM":"UTC","ELEMENT_SET_NO":"999","INCLINATION":"97.6564","COUNTRY_CODE":"US","CLASSIFICATION_TYPE":"U","GP_ID":"223458308","RCS_SIZE":"LARGE","REV_AT_EPOCH":"2133","ECCENTRICITY":"0.00016610","MEAN_ELEMENT_THEORY":"SGP4","TLE_LINE2":"2 53671  97.6564 262.1224 0001661 103.0701 257.0709 15.01295486 21336","OBJECT_NAME":"STARLINK-4440","NORAD_CAT_ID":"53671","EPOCH":"2023-01-18T22:10:36.480576","SEMIMAJOR_AXIS":"6941.037","LAUNCH_DATE":"2022-08-31"},{"BSTAR":"0.00131720000000","PERIAPSIS":"562.109","OBJECT_TYPE":"PAYLOAD","CENTER_NAME":"EARTH","APOAPSIS":"563.726","INCLINATION":"97.6563","ELEMENT_SET_NO":"999","TIME_SYSTEM":"UTC","REV_AT_EPOCH":"2133","CLASSIFICATION_TYPE":"U","GP_ID":"223457566","RCS_SIZE":"MEDIUM","COUNTRY_CODE":"US","NORAD_CAT_ID":"53672","OBJECT_NAME":"STARLINK-4428","TLE_LINE2":"2 53672  97.6563 262.1174 0001165 105.9851 254.1502 15.01290623 21333","MEAN_ELEMENT_THEORY":"SGP4","ECCENTRICITY":"0.00011650","SEMIMAJOR_AXIS":"6941.052","EPOCH":"2023-01-18T22:02:57.592032","LAUNCH_DATE":"2022-08-31","MEAN_MOTION_DOT":"0.00016913","RA_OF_ASC_NODE":"262.1174","EPHEMERIS_TYPE":"0","FILE":"3754254","ARG_OF_PERICENTER":"105.9851","MEAN_MOTION_DDOT":"0.0000000000000","MEAN_ANOMALY":"254.1502","SITE":"AFWTR","PERIOD":"95.917","OBJECT_ID":"2022-105AA","TLE_LINE1":"1 53672U 22105AA  23018.91872213  .00016913  00000-0  13172-2 0  9996","REF_FRAME":"TEME","DECAY_DATE":null,"MEAN_MOTION":"15.01290623"},{"LAUNCH_DATE":"2022-08-31","EPOCH":"2023-01-18T15:06:31.993344","SEMIMAJOR_AXIS":"6943.546","OBJECT_NAME":"STARLINK-4456","NORAD_CAT_ID":"53673","ECCENTRICITY":"0.00017330","MEAN_ELEMENT_THEORY":"SGP4","TLE_LINE2":"2 53673  97.6567 262.4272 0001733  23.1187 337.0114 15.00482044 21322","RCS_SIZE":"LARGE","GP_ID":"223457813","CLASSIFICATION_TYPE":"U","REV_AT_EPOCH":"2132","COUNTRY_CODE":"US","INCLINATION":"97.6567","TIME_SYSTEM":"UTC","ELEMENT_SET_NO":"999","APOAPSIS":"566.614","PERIAPSIS":"564.208","OBJECT_TYPE":"PAYLOAD","CENTER_NAME":"EARTH","BSTAR":"0.00216060000000","TLE_LINE1":"1 53673U 22105AB  23018.62953696  .00027239  00000-0  21606-2 0  9994","MEAN_MOTION":"15.00482044","REF_FRAME":"TEME","DECAY_DATE":null,"OBJECT_ID":"2022-105AB","PERIOD":"95.969","MEAN_ANOMALY":"337.0114","SITE":"AFWTR","MEAN_MOTION_DDOT":"0.0000000000000","ARG_OF_PERICENTER":"23.1187","FILE":"3754254","RA_OF_ASC_NODE":"262.4272","EPHEMERIS_TYPE":"0","MEAN_MOTION_DOT":"0.00027239"},{"ARG_OF_PERICENTER":"102.7600","FILE":"3754254","MEAN_MOTION_DDOT":"0.0000000000000","MEAN_MOTION_DOT":"0.00018687","RA_OF_ASC_NODE":"262.1144","EPHEMERIS_TYPE":"0","OBJECT_ID":"2022-105AC","TLE_LINE1":"1 53674U 22105AC  23018.91662928  .00018687  00000-0  14545-2 0  9993","MEAN_MOTION":"15.01289268","REF_FRAME":"TEME","DECAY_DATE":null,"MEAN_ANOMALY":"257.3811","SITE":"AFWTR","PERIOD":"95.918","INCLINATION":"97.6558","TIME_SYSTEM":"UTC","ELEMENT_SET_NO":"999","OBJECT_TYPE":"PAYLOAD","CENTER_NAME":"EARTH","PERIAPSIS":"561.760","BSTAR":"0.00145450000000","APOAPSIS":"564.083","EPOCH":"2023-01-18T21:59:56.769792","SEMIMAJOR_AXIS":"6941.057","LAUNCH_DATE":"2022-08-31","CLASSIFICATION_TYPE":"U","GP_ID":"223458061","RCS_SIZE":"LARGE","REV_AT_EPOCH":"2133","COUNTRY_CODE":"US","OBJECT_NAME":"STARLINK-4620","NORAD_CAT_ID":"53674","ECCENTRICITY":"0.00016730","MEAN_ELEMENT_THEORY":"SGP4","TLE_LINE2":"2 53674  97.6558 262.1144 0001673 102.7600 257.3811 15.01289268 21338"},{"MEAN_MOTION_DOT":"0.00012159","RA_OF_ASC_NODE":"262.1180","EPHEMERIS_TYPE":"0","FILE":"3754254","ARG_OF_PERICENTER":"82.6320","MEAN_MOTION_DDOT":"0.0000000000000","SITE":"AFWTR","MEAN_ANOMALY":"277.5128","PERIOD":"95.918","OBJECT_ID":"2022-105AD","REF_FRAME":"TEME","DECAY_DATE":null,"MEAN_MOTION":"15.01286207","TLE_LINE1":"1 53675U 22105AD  23018.92032924  .00012159  00000-0  94895-3 0  9997","BSTAR":"0.00094895000000","CENTER_NAME":"EARTH","OBJECT_TYPE":"PAYLOAD","PERIAPSIS":"561.563","APOAPSIS":"564.299","ELEMENT_SET_NO":"999","TIME_SYSTEM":"UTC","INCLINATION":"97.6574","COUNTRY_CODE":"US","REV_AT_EPOCH":"2133","RCS_SIZE":"LARGE","GP_ID":"223458802","CLASSIFICATION_TYPE":"U","TLE_LINE2":"2 53675  97.6574 262.1180 0001971  82.6320 277.5128 15.01286207 21338","MEAN_ELEMENT_THEORY":"SGP4","ECCENTRICITY":"0.00019710","NORAD_CAT_ID":"53675","OBJECT_NAME":"STARLINK-4617","SEMIMAJOR_AXIS":"6941.066","EPOCH":"2023-01-18T22:05:16.446336","LAUNCH_DATE":"2022-08-31"},{"PERIOD":"95.919","MEAN_ANOMALY":"249.6025","SITE":"AFWTR","TLE_LINE1":"1 53676U 22105AE  23018.91293237  .00003959  00000-0  31260-3 0  9998","DECAY_DATE":null,"REF_FRAME":"TEME","MEAN_MOTION":"15.01267540","OBJECT_ID":"2022-105AE","RA_OF_ASC_NODE":"262.1099","EPHEMERIS_TYPE":"0","MEAN_MOTION_DOT":"0.00003959","MEAN_MOTION_DDOT":"0.0000000000000","FILE":"3754254","ARG_OF_PERICENTER":"110.5413","NORAD_CAT_ID":"53676","OBJECT_NAME":"STARLINK-4621","TLE_LINE2":"2 53676  97.6566 262.1099 0001994 110.5413 249.6025 15.01267540 21333","MEAN_ELEMENT_THEORY":"SGP4","ECCENTRICITY":"0.00019940","REV_AT_EPOCH":"2133","CLASSIFICATION_TYPE":"U","GP_ID":"223457071","RCS_SIZE":"LARGE","COUNTRY_CODE":"US","LAUNCH_DATE":"2022-08-31","SEMIMAJOR_AXIS":"6941.124","EPOCH":"2023-01-18T21:54:37.356768","APOAPSIS":"564.373","BSTAR":"0.00031260000000","OBJECT_TYPE":"PAYLOAD","CENTER_NAME":"EARTH","PERIAPSIS":"561.605","INCLINATION":"97.6566","ELEMENT_SET_NO":"999","TIME_SYSTEM":"UTC"},{"ARG_OF_PERICENTER":"99.7967","FILE":"3754254","MEAN_MOTION_DDOT":"0.0000000000000","MEAN_MOTION_DOT":"0.00019699","RA_OF_ASC_NODE":"262.1182","EPHEMERIS_TYPE":"0","OBJECT_ID":"2022-105AF","TLE_LINE1":"1 53677U 22105AF  23018.91847867  .00019699  00000-0  15323-2 0  9992","MEAN_MOTION":"15.01301141","DECAY_DATE":null,"REF_FRAME":"TEME","MEAN_ANOMALY":"260.3505","SITE":"AFWTR","PERIOD":"95.917","INCLINATION":"97.6574","TIME_SYSTEM":"UTC","ELEMENT_SET_NO":"999","PERIAPSIS":"561.361","OBJECT_TYPE":"PAYLOAD","CENTER_NAME":"EARTH","BSTAR":"0.00153230000000","APOAPSIS":"564.409","EPOCH":"2023-01-18T22:02:36.557088","SEMIMAJOR_AXIS":"6941.020","LAUNCH_DATE":"2022-08-31","RCS_SIZE":"LARGE","GP_ID":"223457319","CLASSIFICATION_TYPE":"U","REV_AT_EPOCH":"2133","COUNTRY_CODE":"US","OBJECT_NAME":"STARLINK-4579","NORAD_CAT_ID":"53677","ECCENTRICITY":"0.00021950","TLE_LINE2":"2 53677  97.6574 262.1182 0002195  99.7967 260.3505 15.01301141 21331","MEAN_ELEMENT_THEORY":"SGP4"}];
